[{"OBJECT_NAME":"STARLINK-2101","OBJECT_ID":"2021-005AJ","EPOCH":"2026-03-09T22:00:01.999584","MEAN_MOTION":15.16034978,"ECCENTRICITY":0.00012406,"INCLINATION":53.0957,"RA_OF_ASC_NODE":35.4622,"ARG_OF_PERICENTER":102.7891,"MEAN_ANOMALY":195.0819,"EPHEMERIS_TYPE":0,"CLASSIFICATION_TYPE":"U","NORAD_CAT_ID":47381,"ELEMENT_SET_NO":999,"REV_AT_EPOCH":573,"BSTAR":0.052963497,"MEAN_MOTION_DOT":0.0111761,"MEAN_MOTION_DDOT":0},{"OBJECT_NAME":"GENA-OT","OBJECT_ID":"2025-276DN","EPOCH":"2026-03-09T17:45:26.597088","MEAN_MOTION":15.19877093,"ECCENTRICITY":0.00019544,"INCLINATION":97.4281,"RA_OF_ASC_NODE":144.1751,"ARG_OF_PERICENTER":148.5398,"MEAN_ANOMALY":211.5954,"EPHEMERIS_TYPE":0,"CLASSIFICATION_TYPE":"U","NORAD_CAT_ID":66774,"ELEMENT_SET_NO":999,"REV_AT_EPOCH":1533,"BSTAR":0.00037147435,"MEAN_MOTION_DOT":7.907e-5,"MEAN_MOTION_DDOT":0}]
